{"type": "FeatureCollection", "features": [ {"type": "Feature", "properties": {"norad_id": 33153, "name": "INTELSAT 25 (IS-25)", "group": "intelsat", "lat": 2.1893136429165665, "lon": -179.41868814791786, "alt_km": 35784.11262543821, "timestamp": "2025-12-08T08:59:00.439703+00:00", "meta": {"OBJECT_NAME": "INTELSAT 25 (IS-25)", "OBJECT_ID": "2008-034A", "EPOCH": "2025-12-07T22:02:46.339296", "MEAN_MOTION": 1.00270512, "ECCENTRICITY": 0.00054347, "INCLINATION": 2.215, "RA_OF_ASC_NODE": 82.6985, "ARG_OF_PERICENTER": 182.776, "MEAN_ANOMALY": 110.659, "EPHEMERIS_TYPE": 0, "CLASSIFICATION_TYPE": "U", "NORAD_CAT_ID": 33153, "ELEMENT_SET_NO": 999, "REV_AT_EPOCH": 6377, "BSTAR": 0, "MEAN_MOTION_DOT": -2.22e-06, "MEAN_MOTION_DDOT": 0}, "tle": {"line1": "1 33153U 08034A   25341.91859189 -.00000222  00000+0  00000+0 0  9990", "line2": "2 33153   2.2150  82.6985 0005434 182.7760 110.6590  1.00270512 63775"}}, "geometry": {"type": "Point", "coordinates": [-179.41868814791786, 2.1893136429165665]}}, {"type": "Feature", "properties": {"norad_id": 33376, "name": "GALAXY 19 (G-19)", "group": "intelsat", "lat": 0.013344757137960338, "lon": 115.10831491455284, "alt_km": 35799.59015996311, "timestamp": "2025-12-08T08:59:00.439716+00:00", "meta": {"OBJECT_NAME": "GALAXY 19 (G-19)", "OBJECT_ID": "2008-045A", "EPOCH": "2025-12-07T21:44:04.473312", "MEAN_MOTION": 1.0026955, "ECCENTRICITY": 0.00033833, "INCLINATION": 0.0159, "RA_OF_ASC_NODE": 303.6828, "ARG_OF_PERICENTER": 325.4261, "MEAN_ANOMALY": 36.8304, "EPHEMERIS_TYPE": 0, "CLASSIFICATION_TYPE": "U", "NORAD_CAT_ID": 33376, "ELEMENT_SET_NO": 999, "REV_AT_EPOCH": 6298, "BSTAR": 0, "MEAN_MOTION_DOT": -1.36e-06, "MEAN_MOTION_DDOT": 0}, "tle": {"line1": "1 33376U 08045A   25341.90560733 -.00000136  00000+0  00000+0 0  9996", "line2": "2 33376   0.0159 303.6828 0003383 325.4261  36.8304  1.00269550 62986"}}, "geometry": {"type": "Point", "coordinates": [115.10831491455284, 0.013344757137960338]}}, {"type": "Feature", "properties": {"norad_id": 35493, "name": "FM-5", "group": "intelsat", "lat": 0.00234902635859684, "lon": 125.97874802219502, "alt_km": 35784.49207962633, "timestamp": "2025-12-08T08:59:00.439730+00:00", "meta": {"OBJECT_NAME": "FM-5", "OBJECT_ID": "2009-034A", "EPOCH": "2025-12-07T21:47:04.186176", "MEAN_MOTION": 1.00271462, "ECCENTRICITY": 7.317e-05, "INCLINATION": 0.0197, "RA_OF_ASC_NODE": 289.0381, "ARG_OF_PERICENTER": 252.8974, "MEAN_ANOMALY": 135.6117, "EPHEMERIS_TYPE": 0, "CLASSIFICATION_TYPE": "U", "NORAD_CAT_ID": 35493, "ELEMENT_SET_NO": 999, "REV_AT_EPOCH": 4472, "BSTAR": 0, "MEAN_MOTION_DOT": -1.97e-06, "MEAN_MOTION_DDOT": 0}, "tle": {"line1": "1 35493U 09034A   25341.90768734 -.00000197  00000+0  00000+0 0  9995", "line2": "2 35493   0.0197 289.0381 0000731 252.8974 135.6117  1.00271462 44726"}}, "geometry": {"type": "Point", "coordinates": [125.97874802219502, 0.00234902635859684]}}, {"type": "Feature", "properties": {"norad_id": 36097, "name": "INTELSAT 14 (IS-14)", "group": "intelsat", "lat": -0.008333953056035568, "lon": 167.10640232358048, "alt_km": 35787.576920715925, "timestamp": "2025-12-08T08:59:00.439746+00:00", "meta": {"OBJECT_NAME": "INTELSAT 14 (IS-14)", "OBJECT_ID": "2009-064A", "EPOCH": "2025-12-07T21:58:54.209280", "MEAN_MOTION": 1.0027074, "ECCENTRICITY": 0.00027145, "INCLINATION": 0.01, "RA_OF_ASC_NODE": 325.0553, "ARG_OF_PERICENTER": 297.837, "MEAN_ANOMALY": 98.7745, "EPHEMERIS_TYPE": 0, "CLASSIFICATION_TYPE": "U", "NORAD_CAT_ID": 36097, "ELEMENT_SET_NO": 999, "REV_AT_EPOCH": 5868, "BSTAR": 0, "MEAN_MOTION_DOT": -2.7e-06, "MEAN_MOTION_DDOT": 0}, "tle": {"line1": "1 36097U 09064A   25341.91590520 -.00000270  00000+0  00000+0 0  9998", "line2": "2 36097   0.0100 325.0553 0002714 297.8370  98.7745  1.00270740 58689"}}, "geometry": {"type": "Point", "coordinates": [167.10640232358048, -0.008333953056035568]}}, {"type": "Feature", "properties": {"norad_id": 36106, "name": "INTELSAT 15 (IS-15)", "group": "intelsat", "lat": -0.030108455893366554, "lon": -62.702279394337204, "alt_km": 35777.94131314575, "timestamp": "2025-12-08T08:59:00.439758+00:00", "meta": {"OBJECT_NAME": "INTELSAT 15 (IS-15)", "OBJECT_ID": "2009-067A", "EPOCH": "2025-12-07T22:35:58.159104", "MEAN_MOTION": 1.00270269, "ECCENTRICITY": 0.00024874, "INCLINATION": 0.0155, "RA_OF_ASC_NODE": 356.1908, "ARG_OF_PERICENTER": 265.7983, "MEAN_ANOMALY": 239.1138, "EPHEMERIS_TYPE": 0, "CLASSIFICATION_TYPE": "U", "NORAD_CAT_ID": 36106, "ELEMENT_SET_NO": 999, "REV_AT_EPOCH": 3931, "BSTAR": 0, "MEAN_MOTION_DOT": -1.82e-06, "MEAN_MOTION_DDOT": 0}, "tle": {"line1": "1 36106U 09067A   25341.94164536 -.00000182  00000+0  00000+0 0  9991", "line2": "2 36106   0.0155 356.1908 0002487 265.7983 239.1138  1.00270269 39312"}}, "geometry": {"type": "Point", "coordinates": [-62.702279394337204, -0.030108455893366554]}}, {"type": "Feature", "properties": {"norad_id": 36131, "name": "DIRECTV 12", "group": "intelsat", "lat": 0.016923921093200612, "lon": 109.40690300665634, "alt_km": 35787.34288833321, "timestamp": "2025-12-08T08:59:00.439770+00:00", "meta": {"OBJECT_NAME": "DIRECTV 12", "OBJECT_ID": "2009-075A", "EPOCH": "2025-12-07T21:42:27.128160", "MEAN_MOTION": 1.00270632, "ECCENTRICITY": 4.011e-05, "INCLINATION": 0.0442, "RA_OF_ASC_NODE": 138.043, "ARG_OF_PERICENTER": 207.7117, "MEAN_ANOMALY": 314.0536, "EPHEMERIS_TYPE": 0, "CLASSIFICATION_TYPE": "U", "NORAD_CAT_ID": 36131, "ELEMENT_SET_NO": 999, "REV_AT_EPOCH": 4463, "BSTAR": 0, "MEAN_MOTION_DOT": -1e-06, "MEAN_MOTION_DDOT": 0}, "tle": {"line1": "1 36131U 09075A   25341.90448065 -.00000100  00000+0  00000+0 0  9996", "line2": "2 36131   0.0442 138.0430 0000401 207.7117 314.0536  1.00270632 44635"}}, "geometry": {"type": "Point", "coordinates": [109.40690300665634, 0.016923921093200612]}}, {"type": "Feature", "properties": {"norad_id": 36397, "name": "INTELSAT 16 (IS-16)", "group": "intelsat", "lat": 0.0008296869320924228, "lon": 135.9084104646929, "alt_km": 35791.99190380064, "timestamp": "2025-12-08T08:59:00.439781+00:00", "meta": {"OBJECT_NAME": "INTELSAT 16 (IS-16)", "OBJECT_ID": "2010-006A", "EPOCH": "2025-12-07T21:49:33.946752", "MEAN_MOTION": 1.00270597, "ECCENTRICITY": 0.00023332, "INCLINATION": 0.0194, "RA_OF_ASC_NODE": 302.5305, "ARG_OF_PERICENTER": 317.4352, "MEAN_ANOMALY": 68.1537, "EPHEMERIS_TYPE": 0, "CLASSIFICATION_TYPE": "U", "NORAD_CAT_ID": 36397, "ELEMENT_SET_NO": 999, "REV_AT_EPOCH": 5773, "BSTAR": 0, "MEAN_MOTION_DOT": -2.41e-06, "MEAN_MOTION_DDOT": 0}, "tle": {"line1": "1 36397U 10006A   25341.90942068 -.00000241  00000+0  00000+0 0  9994", "line2": "2 36397   0.0194 302.5305 0002333 317.4352  68.1537  1.00270597 57731"}}, "geometry": {"type": "Point", "coordinates": [135.9084104646929, 0.0008296869320924228]}}, {"type": "Feature", "properties": {"norad_id": 37185, "name": "XM-5", "group": "intelsat", "lat": 0.013385667701568786, "lon": 96.91991621908278, "alt_km": 35783.37944688197, "timestamp": "2025-12-08T08:59:00.439793+00:00", "meta": {"OBJECT_NAME": "XM-5", "OBJECT_ID": "2010-053A", "EPOCH": "2025-12-07T21:38:49.974720", "MEAN_MOTION": 1.00269327, "ECCENTRICITY": 0.00016981, "INCLINATION": 0.0629, "RA_OF_ASC_NODE": 272.7874, "ARG_OF_PERICENTER": 245.9532, "MEAN_ANOMALY": 127.6966, "EPHEMERIS_TYPE": 0, "CLASSIFICATION_TYPE": "U", "NORAD_CAT_ID": 37185, "ELEMENT_SET_NO": 999, "REV_AT_EPOCH": 5556, "BSTAR": 0, "MEAN_MOTION_DOT": -2e-07, "MEAN_MOTION_DDOT": 0}, "tle": {"line1": "1 37185U 10053A   25341.90196730 -.00000020  00000+0  00000+0 0  9994", "line2": "2 37185   0.0629 272.7874 0001698 245.9532 127.6966  1.00269327 55562"}}, "geometry": {"type": "Point", "coordinates": [96.91991621908278, 0.013385667701568786]}}, {"type": "Feature", "properties": {"norad_id": 37238, "name": "INTELSAT 17 (IS-17)", "group": "intelsat", "lat": -0.021667641759571837, "lon": -81.85577074255752, "alt_km": 35776.361042874676, "timestamp": "2025-12-08T08:59:00.439805+00:00", "meta": {"OBJECT_NAME": "INTELSAT 17 (IS-17)", "OBJECT_ID": "2010-065B", "EPOCH": "2025-12-07T19:05:08.062944", "MEAN_MOTION": 1.00271817, "ECCENTRICITY": 0.00024242, "INCLINATION": 0.0057, "RA_OF_ASC_NODE": 324.0884, "ARG_OF_PERICENTER": 294.7028, "MEAN_ANOMALY": 170.3098, "EPHEMERIS_TYPE": 0, "CLASSIFICATION_TYPE": "U", "NORAD_CAT_ID": 37238, "ELEMENT_SET_NO": 999, "REV_AT_EPOCH": 5132, "BSTAR": 0, "MEAN_MOTION_DOT": 2e-08, "MEAN_MOTION_DDOT": 0}, "tle": {"line1": "1 37238U 10065B   25341.79523221  .00000002  00000+0  00000+0 0  9991", "line2": "2 37238   0.0057 324.0884 0002424 294.7028 170.3098  1.00271817 51326"}}, "geometry": {"type": "Point", "coordinates": [-81.85577074255752, -0.021667641759571837]}}, {"type": "Feature", "properties": {"norad_id": 37392, "name": "INTELSAT 28 (IS-28)", "group": "intelsat", "lat": 1.3008109317259726, "lon": -179.6253923223504, "alt_km": 35784.27112472887, "timestamp": "2025-12-08T08:59:00.439817+00:00", "meta": {"OBJECT_NAME": "INTELSAT 28 (IS-28)", "OBJECT_ID": "2011-016A", "EPOCH": "2025-12-07T22:02:38.851008", "MEAN_MOTION": 1.00270365, "ECCENTRICITY": 0.00041487, "INCLINATION": 1.3119, "RA_OF_ASC_NODE": 85.113, "ARG_OF_PERICENTER": 178.528, "MEAN_ANOMALY": 112.2458, "EPHEMERIS_TYPE": 0, "CLASSIFICATION_TYPE": "U", "NORAD_CAT_ID": 37392, "ELEMENT_SET_NO": 999, "REV_AT_EPOCH": 5136, "BSTAR": 0, "MEAN_MOTION_DOT": -2.22e-06, "MEAN_MOTION_DDOT": 0}, "tle": {"line1": "1 37392U 11016A   25341.91850522 -.00000222  00000+0  00000+0 0  9995", "line2": "2 37392   1.3119  85.1130 0004148 178.5280 112.2458  1.00270365 51369"}}, "geometry": {"type": "Point", "coordinates": [-179.6253923223504, 1.3008109317259726]}}]}